{
  "type": "FeatureCollection",
  "features": [
    {
      "type": "Feature",
      "properties": {
        "norad_id": 66594,
        "name": "STARLINK-36032",
        "group": "last-30-days",
        "lat": -21.61004243156007,
        "lon": 100.18914125243954,
        "alt_km": 327.9684762638144,
        "timestamp": "2025-12-02T07:10:07.868447+00:00",
        "meta_object_name": "STARLINK-36032",
        "meta_object_id": "2025-270G",
        "meta_epoch": "2025-12-01T16:00:03.998880",
        "meta_mean_motion": 15.83355975,
        "meta_eccentricity": 0.0001626,
        "meta_inclination": 42.9983,
        "meta_ra_of_asc_node": 258.9063,
        "meta_arg_of_pericenter": 256.8186,
        "meta_mean_anomaly": 311.4207,
        "meta_ephemeris_type": 0,
        "meta_classification_type": "U",
        "meta_norad_cat_id": 66594,
        "meta_element_set_no": 999,
        "meta_rev_at_epoch": 236,
        "meta_bstar": -0.0077645,
        "meta_mean_motion_dot": -0.01533415,
        "meta_mean_motion_ddot": 0,
        "tle_line1": "1 66594U 25270G   25335.66671295 -.01533415  00000+0 -77645-2 0  9990",
        "tle_line2": "2 66594  42.9983 258.9063 0001626 256.8186 311.4207 15.83355975  2361"
      },
      "geometry": {
        "type": "Point",
        "coordinates": [
          100.18914125243954,
          -21.61004243156007
        ]
      }
    },
    {
      "type": "Feature",
      "properties": {
        "norad_id": 66595,
        "name": "STARLINK-35711",
        "group": "last-30-days",
        "lat": -22.950564291956148,
        "lon": 102.05445922092164,
        "alt_km": 328.0064715297176,
        "timestamp": "2025-12-02T07:10:07.868457+00:00",
        "meta_object_name": "STARLINK-35711",
        "meta_object_id": "2025-270H",
        "meta_epoch": "2025-12-01T16:00:03.998880",
        "meta_mean_motion": 15.83363114,
        "meta_eccentricity": 0.0001687,
        "meta_inclination": 42.9983,
        "meta_ra_of_asc_node": 258.9005,
        "meta_arg_of_pericenter": 255.8443,
        "meta_mean_anomaly": 314.5867,
        "meta_ephemeris_type": 0,
        "meta_classification_type": "U",
        "meta_norad_cat_id": 66595,
        "meta_element_set_no": 999,
        "meta_rev_at_epoch": 273,
        "meta_bstar": -0.0078182,
        "meta_mean_motion_dot": -0.01543242,
        "meta_mean_motion_ddot": 0,
        "tle_line1": "1 66595U 25270H   25335.66671295 -.01543242  00000+0 -78182-2 0  9997",
        "tle_line2": "2 66595  42.9983 258.9005 0001687 255.8443 314.5867 15.83363114  2731"
      },
      "geometry": {
        "type": "Point",
        "coordinates": [
          102.05445922092164,
          -22.950564291956148
        ]
      }
    },
    {
      "type": "Feature",
      "properties": {
        "norad_id": 66596,
        "name": "STARLINK-35811",
        "group": "last-30-days",
        "lat": -24.224876771550868,
        "lon": 103.89294597474029,
        "alt_km": 328.0672318044162,
        "timestamp": "2025-12-02T07:10:07.868469+00:00",
        "meta_object_name": "STARLINK-35811",
        "meta_object_id": "2025-270J",
        "meta_epoch": "2025-12-01T16:00:03.998880",
        "meta_mean_motion": 15.83377327,
        "meta_eccentricity": 0.0001571,
        "meta_inclination": 42.9981,
        "meta_ra_of_asc_node": 258.8952,
        "meta_arg_of_pericenter": 252.3015,
        "meta_mean_anomaly": 320.2324,
        "meta_ephemeris_type": 0,
        "meta_classification_type": "U",
        "meta_norad_cat_id": 66596,
        "meta_element_set_no": 999,
        "meta_rev_at_epoch": 273,
        "meta_bstar": -0.00788,
        "meta_mean_motion_dot": -0.01554787,
        "meta_mean_motion_ddot": 0,
        "tle_line1": "1 66596U 25270J   25335.66671295 -.01554787  00000+0 -78800-2 0  9991",
        "tle_line2": "2 66596  42.9981 258.8952 0001571 252.3015 320.2324 15.83377327  2732"
      },
      "geometry": {
        "type": "Point",
        "coordinates": [
          103.89294597474029,
          -24.224876771550868
        ]
      }
    },
    {
      "type": "Feature",
      "properties": {
        "norad_id": 66597,
        "name": "STARLINK-35820",
        "group": "last-30-days",
        "lat": -25.38463081126833,
        "lon": 105.62760787519422,
        "alt_km": 328.111220078089,
        "timestamp": "2025-12-02T07:10:07.868481+00:00",
        "meta_object_name": "STARLINK-35820",
        "meta_object_id": "2025-270K",
        "meta_epoch": "2025-12-01T16:00:03.998880",
        "meta_mean_motion": 15.83398272,
        "meta_eccentricity": 0.0001639,
        "meta_inclination": 42.9985,
        "meta_ra_of_asc_node": 258.8905,
        "meta_arg_of_pericenter": 256.1171,
        "meta_mean_anomaly": 318.3362,
        "meta_ephemeris_type": 0,
        "meta_classification_type": "U",
        "meta_norad_cat_id": 66597,
        "meta_element_set_no": 999,
        "meta_rev_at_epoch": 273,
        "meta_bstar": -0.007888,
        "meta_mean_motion_dot": -0.01557595,
        "meta_mean_motion_ddot": 0,
        "tle_line1": "1 66597U 25270K   25335.66671295 -.01557595  00000+0 -78880-2 0  9990",
        "tle_line2": "2 66597  42.9985 258.8905 0001639 256.1171 318.3362 15.83398272  2737"
      },
      "geometry": {
        "type": "Point",
        "coordinates": [
          105.62760787519422,
          -25.38463081126833
        ]
      }
    },
    {
      "type": "Feature",
      "properties": {
        "norad_id": 66598,
        "name": "STARLINK-35981",
        "group": "last-30-days",
        "lat": -26.62761041233517,
        "lon": 107.56140473655614,
        "alt_km": 328.1222651417438,
        "timestamp": "2025-12-02T07:10:07.868492+00:00",
        "meta_object_name": "STARLINK-35981",
        "meta_object_id": "2025-270L",
        "meta_epoch": "2025-12-01T16:00:03.998880",
        "meta_mean_motion": 15.83410258,
        "meta_eccentricity": 0.0001632,
        "meta_inclination": 42.9982,
        "meta_ra_of_asc_node": 258.8851,
        "meta_arg_of_pericenter": 253.0536,
        "meta_mean_anomaly": 323.5301,
        "meta_ephemeris_type": 0,
        "meta_classification_type": "U",
        "meta_norad_cat_id": 66598,
        "meta_element_set_no": 999,
        "meta_rev_at_epoch": 246,
        "meta_bstar": -0.0079403,
        "meta_mean_motion_dot": -0.01567427,
        "meta_mean_motion_ddot": 0,
        "tle_line1": "1 66598U 25270L   25335.66671295 -.01567427  00000+0 -79403-2 0  9998",
        "tle_line2": "2 66598  42.9982 258.8851 0001632 253.0536 323.5301 15.83410258  2469"
      },
      "geometry": {
        "type": "Point",
        "coordinates": [
          107.56140473655614,
          -26.62761041233517
        ]
      }
    },
    {
      "type": "Feature",
      "properties": {
        "norad_id": 66599,
        "name": "STARLINK-35930",
        "group": "last-30-days",
        "lat": -27.70253881479016,
        "lon": 109.30269877495415,
        "alt_km": 328.28271341817435,
        "timestamp": "2025-12-02T07:10:07.868503+00:00",
        "meta_object_name": "STARLINK-35930",
        "meta_object_id": "2025-270M",
        "meta_epoch": "2025-12-01T16:00:03.998880",
        "meta_mean_motion": 15.83437481,
        "meta_eccentricity": 0.0001603,
        "meta_inclination": 42.9985,
        "meta_ra_of_asc_node": 258.8805,
        "meta_arg_of_pericenter": 261.8481,
        "meta_mean_anomaly": 316.5723,
        "meta_ephemeris_type": 0,
        "meta_classification_type": "U",
        "meta_norad_cat_id": 66599,
        "meta_element_set_no": 999,
        "meta_rev_at_epoch": 262,
        "meta_bstar": -0.0079468,
        "meta_mean_motion_dot": -0.01570317,
        "meta_mean_motion_ddot": 0,
        "tle_line1": "1 66599U 25270M   25335.66671295 -.01570317  00000+0 -79468-2 0  9992",
        "tle_line2": "2 66599  42.9985 258.8805 0001603 261.8481 316.5723 15.83437481  2621"
      },
      "geometry": {
        "type": "Point",
        "coordinates": [
          109.30269877495415,
          -27.70253881479016
        ]
      }
    },
    {
      "type": "Feature",
      "properties": {
        "norad_id": 66600,
        "name": "STARLINK-35980",
        "group": "last-30-days",
        "lat": -28.86501345804599,
        "lon": 111.26867152962213,
        "alt_km": 328.24617812484667,
        "timestamp": "2025-12-02T07:10:07.868514+00:00",
        "meta_object_name": "STARLINK-35980",
        "meta_object_id": "2025-270N",
        "meta_epoch": "2025-12-01T16:00:03.998880",
        "meta_mean_motion": 15.83448962,
        "meta_eccentricity": 0.000162,
        "meta_inclination": 42.9984,
        "meta_ra_of_asc_node": 258.8753,
        "meta_arg_of_pericenter": 258.6864,
        "meta_mean_anomaly": 321.8063,
        "meta_ephemeris_type": 0,
        "meta_classification_type": "U",
        "meta_norad_cat_id": 66600,
        "meta_element_set_no": 999,
        "meta_rev_at_epoch": 252,
        "meta_bstar": -0.0079723,
        "meta_mean_motion_dot": -0.01575492,
        "meta_mean_motion_ddot": 0,
        "tle_line1": "1 66600U 25270N   25335.66671295 -.01575492  00000+0 -79723-2 0  9998",
        "tle_line2": "2 66600  42.9984 258.8753 0001620 258.6864 321.8063 15.83448962  2524"
      },
      "geometry": {
        "type": "Point",
        "coordinates": [
          111.26867152962213,
          -28.86501345804599
        ]
      }
    }
  ]
}